QIANFAN-18              
1 60396U 24140T   26085.55052965  .00000063  00000+0  79117-4 0  9990
2 60396  88.9690 288.2236 0012559 246.0962 113.8874 13.51005438 81548
QIANFAN-19              
1 61552U 24185A   26085.44341493  .00000484  00000+0  24569-3 0  9996
2 61552  88.9783  66.0304 0006299 352.5769   7.5324 14.14407287 84322
QIANFAN-20              
1 61553U 24185B   26085.45088348  .00000524  00000+0  29518-3 0  9999
2 61553  88.9779  66.4578 0006859  33.1698 326.9915 14.08953214 84097
QIANFAN-21              
1 61554U 24185C   26085.49388633  .00000635  00000+0  27663-3 0  9996
2 61554  88.9702  64.7994 0012046  36.0741 324.1261 14.22756194 84721
QIANFAN-22              
1 61555U 24185D   26085.50890681  .00000321  00000+0  26641-3 0  9997
2 61555  88.9763  67.8518 0008230  51.5735 308.6174 13.86350334 83319
QIANFAN-23              
1 61556U 24185E   26085.48441217  .00000577  00000+0  28337-3 0  9999
2 61556  88.9776  65.7867 0007412   1.2607 358.8599 14.16417138 84431
QIANFAN-24              
1 61557U 24185F   26085.47928513  .00000720  00000+0  30767-3 0  9998
2 61557  88.9760  65.0229 0007899 335.0173  25.0635 14.23966115 84789
QIANFAN-25              
1 61558U 24185G   26085.48906304  .00000392  00000+0  23050-3 0  9996
2 61558  88.9772  66.4209 0010964  12.1908 347.9537 14.06013512 84087
QIANFAN-26              
1 61559U 24185H   26085.45205360  .00000299  00000+0  28538-3 0  9990
2 61559  88.9767  68.5317 0007811  66.0232 294.1751 13.77871977 82959
QIANFAN-27              
1 61560U 24185J   26085.49965343  .00000614  00000+0  24424-3 0  9991
2 61560  88.9773  64.7527 0006009 325.3086  34.7715 14.27466379 84968
QIANFAN-28              
1 61561U 24185K   26085.49780131  .00000880  00000+0  34755-3 0  9995
2 61561  88.9789  64.7607 0005600 325.7323  34.3509 14.28253070 84981
QIANFAN-29              
1 61562U 24185L   26085.49926219  .00000203  00000+0  29501-3 0  9997
2 61562  88.9737  70.5629 0011783 106.5896 253.6550 13.51052164 81809
QIANFAN-30              
1 61563U 24185M   26085.47864227  .00000174  00000+0  25482-3 0  9997
2 61563  88.9758  70.1302 0009708  94.1017 266.1244 13.50025989 82060
QIANFAN-31              
1 61564U 24185N   26085.50093166  .00000215  00000+0  28030-3 0  9996
2 61564  88.9743  69.7648 0009236  86.7738 273.4474 13.58011404 82246
QIANFAN-32              
1 61565U 24185P   26085.46388061  .00000167  00000+0  24094-3 0  9995
2 61565  88.9802  70.2978 0011387 117.8916 242.3390 13.50769802 82044
QIANFAN-33              
1 61566U 24185Q   26085.50614463  .00000404  00000+0  28214-3 0  9991
2 61566  88.9760  67.2125 0007776  20.2686 339.8799 13.96640531 83645
QIANFAN-34              
1 61567U 24185R   26085.47391715  .00000373  00000+0  23409-3 0  9996
2 61567  88.9739  66.6425 0006273  22.5511 337.5943 14.02402388 83898
