[{"OBJECT_NAME":"QIANFAN-18","OBJECT_ID":"2024-140T","EPOCH":"2026-03-26T13:12:45.761760","MEAN_MOTION":13.51005438,"ECCENTRICITY":0.0012559,"INCLINATION":88.969,"RA_OF_ASC_NODE":288.2236,"ARG_OF_PERICENTER":246.0962,"MEAN_ANOMALY":113.8874,"EPHEMERIS_TYPE":0,"CLASSIFICATION_TYPE":"U","NORAD_CAT_ID":60396,"ELEMENT_SET_NO":999,"REV_AT_EPOCH":8154,"BSTAR":7.9117e-5,"MEAN_MOTION_DOT":6.3e-7,"MEAN_MOTION_DDOT":0},{"OBJECT_NAME":"QIANFAN-19","OBJECT_ID":"2024-185A","EPOCH":"2026-03-26T10:38:31.049952","MEAN_MOTION":14.14407287,"ECCENTRICITY":0.0006299,"INCLINATION":88.9783,"RA_OF_ASC_NODE":66.0304,"ARG_OF_PERICENTER":352.5769,"MEAN_ANOMALY":7.5324,"EPHEMERIS_TYPE":0,"CLASSIFICATION_TYPE":"U","NORAD_CAT_ID":61552,"ELEMENT_SET_NO":999,"REV_AT_EPOCH":8432,"BSTAR":0.00024569,"MEAN_MOTION_DOT":4.84e-6,"MEAN_MOTION_DDOT":0},{"OBJECT_NAME":"QIANFAN-20","OBJECT_ID":"2024-185B","EPOCH":"2026-03-26T10:49:16.332672","MEAN_MOTION":14.08953214,"ECCENTRICITY":0.0006859,"INCLINATION":88.9779,"RA_OF_ASC_NODE":66.4578,"ARG_OF_PERICENTER":33.1698,"MEAN_ANOMALY":326.9915,"EPHEMERIS_TYPE":0,"CLASSIFICATION_TYPE":"U","NORAD_CAT_ID":61553,"ELEMENT_SET_NO":999,"REV_AT_EPOCH":8409,"BSTAR":0.00029518,"MEAN_MOTION_DOT":5.24e-6,"MEAN_MOTION_DDOT":0},{"OBJECT_NAME":"QIANFAN-21","OBJECT_ID":"2024-185C","EPOCH":"2026-03-26T11:51:11.778912","MEAN_MOTION":14.22756194,"ECCENTRICITY":0.0012046,"INCLINATION":88.9702,"RA_OF_ASC_NODE":64.7994,"ARG_OF_PERICENTER":36.0741,"MEAN_ANOMALY":324.1261,"EPHEMERIS_TYPE":0,"CLASSIFICATION_TYPE":"U","NORAD_CAT_ID":61554,"ELEMENT_SET_NO":999,"REV_AT_EPOCH":8472,"BSTAR":0.00027663,"MEAN_MOTION_DOT":6.35e-6,"MEAN_MOTION_DDOT":0},{"OBJECT_NAME":"QIANFAN-22","OBJECT_ID":"2024-185D","EPOCH":"2026-03-26T12:12:49.548384","MEAN_MOTION":13.86350334,"ECCENTRICITY":0.000823,"INCLINATION":88.9763,"RA_OF_ASC_NODE":67.8518,"ARG_OF_PERICENTER":51.5735,"MEAN_ANOMALY":308.6174,"EPHEMERIS_TYPE":0,"CLASSIFICATION_TYPE":"U","NORAD_CAT_ID":61555,"ELEMENT_SET_NO":999,"REV_AT_EPOCH":8331,"BSTAR":0.00026641,"MEAN_MOTION_DOT":3.21e-6,"MEAN_MOTION_DDOT":0},{"OBJECT_NAME":"QIANFAN-23","OBJECT_ID":"2024-185E","EPOCH":"2026-03-26T11:37:33.211488","MEAN_MOTION":14.16417138,"ECCENTRICITY":0.0007412,"INCLINATION":88.9776,"RA_OF_ASC_NODE":65.7867,"ARG_OF_PERICENTER":1.2607,"MEAN_ANOMALY":358.8599,"EPHEMERIS_TYPE":0,"CLASSIFICATION_TYPE":"U","NORAD_CAT_ID":61556,"ELEMENT_SET_NO":999,"REV_AT_EPOCH":8443,"BSTAR":0.00028337,"MEAN_MOTION_DOT":5.77e-6,"MEAN_MOTION_DDOT":0},{"OBJECT_NAME":"QIANFAN-24","OBJECT_ID":"2024-185F","EPOCH":"2026-03-26T11:30:10.235232","MEAN_MOTION":14.23966115,"ECCENTRICITY":0.0007899,"INCLINATION":88.976,"RA_OF_ASC_NODE":65.0229,"ARG_OF_PERICENTER":335.0173,"MEAN_ANOMALY":25.0635,"EPHEMERIS_TYPE":0,"CLASSIFICATION_TYPE":"U","NORAD_CAT_ID":61557,"ELEMENT_SET_NO":999,"REV_AT_EPOCH":8478,"BSTAR":0.00030767,"MEAN_MOTION_DOT":7.2e-6,"MEAN_MOTION_DDOT":0},{"OBJECT_NAME":"QIANFAN-25","OBJECT_ID":"2024-185G","EPOCH":"2026-03-26T11:44:15.046656","MEAN_MOTION":14.06013512,"ECCENTRICITY":0.0010964,"INCLINATION":88.9772,"RA_OF_ASC_NODE":66.4209,"ARG_OF_PERICENTER":12.1908,"MEAN_ANOMALY":347.9537,"EPHEMERIS_TYPE":0,"CLASSIFICATION_TYPE":"U","NORAD_CAT_ID":61558,"ELEMENT_SET_NO":999,"REV_AT_EPOCH":8408,"BSTAR":0.0002305,"MEAN_MOTION_DOT":3.92e-6,"MEAN_MOTION_DDOT":0},{"OBJECT_NAME":"QIANFAN-26","OBJECT_ID":"2024-185H","EPOCH":"2026-03-26T10:50:57.431040","MEAN_MOTION":13.77871977,"ECCENTRICITY":0.0007811,"INCLINATION":88.9767,"RA_OF_ASC_NODE":68.5317,"ARG_OF_PERICENTER":66.0232,"MEAN_ANOMALY":294.1751,"EPHEMERIS_TYPE":0,"CLASSIFICATION_TYPE":"U","NORAD_CAT_ID":61559,"ELEMENT_SET_NO":999,"REV_AT_EPOCH":8295,"BSTAR":0.00028538,"MEAN_MOTION_DOT":2.99e-6,"MEAN_MOTION_DDOT":0},{"OBJECT_NAME":"QIANFAN-27","OBJECT_ID":"2024-185J","EPOCH":"2026-03-26T11:59:30.056352","MEAN_MOTION":14.27466379,"ECCENTRICITY":0.0006009,"INCLINATION":88.9773,"RA_OF_ASC_NODE":64.7527,"ARG_OF_PERICENTER":325.3086,"MEAN_ANOMALY":34.7715,"EPHEMERIS_TYPE":0,"CLASSIFICATION_TYPE":"U","NORAD_CAT_ID":61560,"ELEMENT_SET_NO":999,"REV_AT_EPOCH":8496,"BSTAR":0.00024424,"MEAN_MOTION_DOT":6.14e-6,"MEAN_MOTION_DDOT":0},{"OBJECT_NAME":"QIANFAN-28","OBJECT_ID":"2024-185K","EPOCH":"2026-03-26T11:56:50.033184","MEAN_MOTION":14.2825307,"ECCENTRICITY":0.00056,"INCLINATION":88.9789,"RA_OF_ASC_NODE":64.7607,"ARG_OF_PERICENTER":325.7323,"MEAN_ANOMALY":34.3509,"EPHEMERIS_TYPE":0,"CLASSIFICATION_TYPE":"U","NORAD_CAT_ID":61561,"ELEMENT_SET_NO":999,"REV_AT_EPOCH":8498,"BSTAR":0.00034755,"MEAN_MOTION_DOT":8.8e-6,"MEAN_MOTION_DDOT":0},{"OBJECT_NAME":"QIANFAN-29","OBJECT_ID":"2024-185L","EPOCH":"2026-03-26T11:58:56.253216","MEAN_MOTION":13.51052164,"ECCENTRICITY":0.0011783,"INCLINATION":88.9737,"RA_OF_ASC_NODE":70.5629,"ARG_OF_PERICENTER":106.5896,"MEAN_ANOMALY":253.655,"EPHEMERIS_TYPE":0,"CLASSIFICATION_TYPE":"U","NORAD_CAT_ID":61562,"ELEMENT_SET_NO":999,"REV_AT_EPOCH":8180,"BSTAR":0.00029501,"MEAN_MOTION_DOT":2.03e-6,"MEAN_MOTION_DDOT":0},{"OBJECT_NAME":"QIANFAN-30","OBJECT_ID":"2024-185M","EPOCH":"2026-03-26T11:29:14.692128","MEAN_MOTION":13.50025989,"ECCENTRICITY":0.0009708,"INCLINATION":88.9758,"RA_OF_ASC_NODE":70.1302,"ARG_OF_PERICENTER":94.1017,"MEAN_ANOMALY":266.1244,"EPHEMERIS_TYPE":0,"CLASSIFICATION_TYPE":"U","NORAD_CAT_ID":61563,"ELEMENT_SET_NO":999,"REV_AT_EPOCH":8206,"BSTAR":0.00025482,"MEAN_MOTION_DOT":1.74e-6,"MEAN_MOTION_DDOT":0},{"OBJECT_NAME":"QIANFAN-31","OBJECT_ID":"2024-185N","EPOCH":"2026-03-26T12:01:20.495424","MEAN_MOTION":13.58011404,"ECCENTRICITY":0.0009236,"INCLINATION":88.9743,"RA_OF_ASC_NODE":69.7648,"ARG_OF_PERICENTER":86.7738,"MEAN_ANOMALY":273.4474,"EPHEMERIS_TYPE":0,"CLASSIFICATION_TYPE":"U","NORAD_CAT_ID":61564,"ELEMENT_SET_NO":999,"REV_AT_EPOCH":8224,"BSTAR":0.0002803,"MEAN_MOTION_DOT":2.15e-6,"MEAN_MOTION_DDOT":0},{"OBJECT_NAME":"QIANFAN-32","OBJECT_ID":"2024-185P","EPOCH":"2026-03-26T11:07:59.284704","MEAN_MOTION":13.50769802,"ECCENTRICITY":0.0011387,"INCLINATION":88.9802,"RA_OF_ASC_NODE":70.2978,"ARG_OF_PERICENTER":117.8916,"MEAN_ANOMALY":242.339,"EPHEMERIS_TYPE":0,"CLASSIFICATION_TYPE":"U","NORAD_CAT_ID":61565,"ELEMENT_SET_NO":999,"REV_AT_EPOCH":8204,"BSTAR":0.00024094,"MEAN_MOTION_DOT":1.67e-6,"MEAN_MOTION_DDOT":0},{"OBJECT_NAME":"QIANFAN-33","OBJECT_ID":"2024-185Q","EPOCH":"2026-03-26T12:08:50.896032","MEAN_MOTION":13.96640531,"ECCENTRICITY":0.0007776,"INCLINATION":88.976,"RA_OF_ASC_NODE":67.2125,"ARG_OF_PERICENTER":20.2686,"MEAN_ANOMALY":339.8799,"EPHEMERIS_TYPE":0,"CLASSIFICATION_TYPE":"U","NORAD_CAT_ID":61566,"ELEMENT_SET_NO":999,"REV_AT_EPOCH":8364,"BSTAR":0.00028214,"MEAN_MOTION_DOT":4.04e-6,"MEAN_MOTION_DDOT":0},{"OBJECT_NAME":"QIANFAN-34","OBJECT_ID":"2024-185R","EPOCH":"2026-03-26T11:22:26.441760","MEAN_MOTION":14.02402388,"ECCENTRICITY":0.0006273,"INCLINATION":88.9739,"RA_OF_ASC_NODE":66.6425,"ARG_OF_PERICENTER":22.5511,"MEAN_ANOMALY":337.5943,"EPHEMERIS_TYPE":0,"CLASSIFICATION_TYPE":"U","NORAD_CAT_ID":61567,"ELEMENT_SET_NO":999,"REV_AT_EPOCH":8389,"BSTAR":0.00023409,"MEAN_MOTION_DOT":3.73e-6,"MEAN_MOTION_DDOT":0}]
